{"type": "FeatureCollection", "features": [ {"type": "Feature", "properties": {"norad_id": 33867, "name": "IRIDIUM 33 DEB", "group": "iridium-33-debris", "lat": -40.35437600458651, "lon": 172.57666609610246, "alt_km": 370.6637942335483, "timestamp": "2025-12-13T22:39:30.095320+00:00", "meta": {"OBJECT_NAME": "IRIDIUM 33 DEB", "OBJECT_ID": "1997-051AL", "EPOCH": "2025-12-13T00:17:57.337152", "MEAN_MOTION": 15.68448649, "ECCENTRICITY": 0.00133514, "INCLINATION": 86.3647, "RA_OF_ASC_NODE": 349.9645, "ARG_OF_PERICENTER": 88.5689, "MEAN_ANOMALY": 271.711, "EPHEMERIS_TYPE": 0, "CLASSIFICATION_TYPE": "U", "NORAD_CAT_ID": 33867, "ELEMENT_SET_NO": 999, "REV_AT_EPOCH": 89515, "BSTAR": 0.0092270239, "MEAN_MOTION_DOT": 0.01147185, "MEAN_MOTION_DDOT": 0}, "tle": {"line1": "1 33867U 97051AL  25347.01246918  .01147185  00000+0  92270-2 0  9999", "line2": "2 33867  86.3647 349.9645 0013351  88.5689 271.7110 15.68448649895152"}}, "geometry": {"type": "Point", "coordinates": [172.57666609610246, -40.35437600458651]}}, {"type": "Feature", "properties": {"norad_id": 33870, "name": "IRIDIUM 33 DEB", "group": "iridium-33-debris", "lat": 68.83850348615547, "lon": -131.6817933426007, "alt_km": 725.6801184748238, "timestamp": "2025-12-13T22:39:30.095331+00:00", "meta": {"OBJECT_NAME": "IRIDIUM 33 DEB", "OBJECT_ID": "1997-051AP", "EPOCH": "2025-12-13T05:48:32.308704", "MEAN_MOTION": 14.4585808, "ECCENTRICITY": 0.00215266, "INCLINATION": 86.3747, "RA_OF_ASC_NODE": 58.0454, "ARG_OF_PERICENTER": 176.4535, "MEAN_ANOMALY": 242.6434, "EPHEMERIS_TYPE": 0, "CLASSIFICATION_TYPE": "U", "NORAD_CAT_ID": 33870, "ELEMENT_SET_NO": 999, "REV_AT_EPOCH": 88144, "BSTAR": 0.001264841, "MEAN_MOTION_DOT": 4.523e-05, "MEAN_MOTION_DDOT": 0}, "tle": {"line1": "1 33870U 97051AP  25347.24204061  .00004523  00000+0  12648-2 0  9999", "line2": "2 33870  86.3747  58.0454 0021526 176.4535 242.6434 14.45858080881444"}}, "geometry": {"type": "Point", "coordinates": [-131.6817933426007, 68.83850348615547]}}, {"type": "Feature", "properties": {"norad_id": 33881, "name": "IRIDIUM 33 DEB", "group": "iridium-33-debris", "lat": 25.20017592636799, "lon": 107.9229311266832, "alt_km": 739.1654557214861, "timestamp": "2025-12-13T22:39:30.095342+00:00", "meta": {"OBJECT_NAME": "IRIDIUM 33 DEB", "OBJECT_ID": "1997-051BA", "EPOCH": "2025-12-12T20:44:34.160064", "MEAN_MOTION": 14.56580115, "ECCENTRICITY": 0.00614774, "INCLINATION": 86.386, "RA_OF_ASC_NODE": 106.688, "ARG_OF_PERICENTER": 174.2575, "MEAN_ANOMALY": 312.8923, "EPHEMERIS_TYPE": 0, "CLASSIFICATION_TYPE": "U", "NORAD_CAT_ID": 33881, "ELEMENT_SET_NO": 999, "REV_AT_EPOCH": 87502, "BSTAR": 0.0029090171, "MEAN_MOTION_DOT": 0.00013329, "MEAN_MOTION_DDOT": 0}, "tle": {"line1": "1 33881U 97051BA  25346.86428426  .00013329  00000+0  29090-2 0  9994", "line2": "2 33881  86.3860 106.6880 0061477 174.2575 312.8923 14.56580115875027"}}, "geometry": {"type": "Point", "coordinates": [107.9229311266832, 25.20017592636799]}}, {"type": "Feature", "properties": {"norad_id": 33884, "name": "IRIDIUM 33 DEB", "group": "iridium-33-debris", "lat": 62.54578103782782, "lon": 16.292607741070945, "alt_km": 632.9200774091369, "timestamp": "2025-12-13T22:39:30.095354+00:00", "meta": {"OBJECT_NAME": "IRIDIUM 33 DEB", "OBJECT_ID": "1997-051BD", "EPOCH": "2025-12-13T01:29:50.844192", "MEAN_MOTION": 14.77439529, "ECCENTRICITY": 0.00097723, "INCLINATION": 86.3705, "RA_OF_ASC_NODE": 9.673, "ARG_OF_PERICENTER": 322.5896, "MEAN_ANOMALY": 93.5713, "EPHEMERIS_TYPE": 0, "CLASSIFICATION_TYPE": "U", "NORAD_CAT_ID": 33884, "ELEMENT_SET_NO": 999, "REV_AT_EPOCH": 88852, "BSTAR": 0.0019383044, "MEAN_MOTION_DOT": 0.00013847, "MEAN_MOTION_DDOT": 0}, "tle": {"line1": "1 33884U 97051BD  25347.06239403  .00013847  00000+0  19383-2 0  9994", "line2": "2 33884  86.3705   9.6730 0009772 322.5896  93.5713 14.77439529888522"}}, "geometry": {"type": "Point", "coordinates": [16.292607741070945, 62.54578103782782]}}, {"type": "Feature", "properties": {"norad_id": 33886, "name": "IRIDIUM 33 DEB", "group": "iridium-33-debris", "lat": 10.750962682910124, "lon": -113.96613838765582, "alt_km": 769.9057754310097, "timestamp": "2025-12-13T22:39:30.095364+00:00", "meta": {"OBJECT_NAME": "IRIDIUM 33 DEB", "OBJECT_ID": "1997-051BF", "EPOCH": "2025-12-13T07:07:22.747584", "MEAN_MOTION": 14.36053313, "ECCENTRICITY": 0.00123433, "INCLINATION": 86.383, "RA_OF_ASC_NODE": 66.9944, "ARG_OF_PERICENTER": 239.9736, "MEAN_ANOMALY": 184.9432, "EPHEMERIS_TYPE": 0, "CLASSIFICATION_TYPE": "U", "NORAD_CAT_ID": 33886, "ELEMENT_SET_NO": 999, "REV_AT_EPOCH": 88060, "BSTAR": 0.0003088149, "MEAN_MOTION_DOT": 9.18e-06, "MEAN_MOTION_DDOT": 0}, "tle": {"line1": "1 33886U 97051BF  25347.29679106  .00000918  00000+0  30881-3 0  9991", "line2": "2 33886  86.3830  66.9944 0012343 239.9736 184.9432 14.36053313880600"}}, "geometry": {"type": "Point", "coordinates": [-113.96613838765582, 10.750962682910124]}}, {"type": "Feature", "properties": {"norad_id": 33887, "name": "IRIDIUM 33 DEB", "group": "iridium-33-debris", "lat": 69.13327564226655, "lon": 173.11203721057493, "alt_km": 762.2443701292632, "timestamp": "2025-12-13T22:39:30.095375+00:00", "meta": {"OBJECT_NAME": "IRIDIUM 33 DEB", "OBJECT_ID": "1997-051BG", "EPOCH": "2025-12-13T07:10:25.497408", "MEAN_MOTION": 14.37221847, "ECCENTRICITY": 0.00044851, "INCLINATION": 86.3045, "RA_OF_ASC_NODE": 3.1513, "ARG_OF_PERICENTER": 224.2117, "MEAN_ANOMALY": 150.2384, "EPHEMERIS_TYPE": 0, "CLASSIFICATION_TYPE": "U", "NORAD_CAT_ID": 33887, "ELEMENT_SET_NO": 999, "REV_AT_EPOCH": 88173, "BSTAR": 0.00022245622, "MEAN_MOTION_DOT": 6.82e-06, "MEAN_MOTION_DDOT": 0}, "tle": {"line1": "1 33887U 97051BG  25347.29890622  .00000682  00000+0  22246-3 0  9994", "line2": "2 33887  86.3045   3.1513 0004485 224.2117 150.2384 14.37221847881739"}}, "geometry": {"type": "Point", "coordinates": [173.11203721057493, 69.13327564226655]}}, {"type": "Feature", "properties": {"norad_id": 33953, "name": "IRIDIUM 33 DEB", "group": "iridium-33-debris", "lat": 44.12911283009985, "lon": 56.772824765931816, "alt_km": 697.0707857629322, "timestamp": "2025-12-13T22:39:30.095385+00:00", "meta": {"OBJECT_NAME": "IRIDIUM 33 DEB", "OBJECT_ID": "1997-051BN", "EPOCH": "2025-12-13T04:24:05.697792", "MEAN_MOTION": 14.55334643, "ECCENTRICITY": 0.00183369, "INCLINATION": 86.3845, "RA_OF_ASC_NODE": 53.5865, "ARG_OF_PERICENTER": 101.5193, "MEAN_ANOMALY": 280.0666, "EPHEMERIS_TYPE": 0, "CLASSIFICATION_TYPE": "U", "NORAD_CAT_ID": 33953, "ELEMENT_SET_NO": 999, "REV_AT_EPOCH": 88310, "BSTAR": 0.0017454245, "MEAN_MOTION_DOT": 7.608e-05, "MEAN_MOTION_DDOT": 0}, "tle": {"line1": "1 33953U 97051BN  25347.18339928  .00007608  00000+0  17454-2 0  9992", "line2": "2 33953  86.3845  53.5865 0018336 101.5193 280.0666 14.55334643883108"}}, "geometry": {"type": "Point", "coordinates": [56.772824765931816, 44.12911283009985]}}, {"type": "Feature", "properties": {"norad_id": 33960, "name": "IRIDIUM 33 DEB", "group": "iridium-33-debris", "lat": -21.912763106647397, "lon": -72.5639406587029, "alt_km": 617.3056882376759, "timestamp": "2025-12-13T22:39:30.095397+00:00", "meta": {"OBJECT_NAME": "IRIDIUM 33 DEB", "OBJECT_ID": "1997-051BV", "EPOCH": "2025-12-13T07:18:21.170016", "MEAN_MOTION": 14.85250874, "ECCENTRICITY": 0.00074314, "INCLINATION": 86.253, "RA_OF_ASC_NODE": 289.2483, "ARG_OF_PERICENTER": 61.837, "MEAN_ANOMALY": 98.2531, "EPHEMERIS_TYPE": 0, "CLASSIFICATION_TYPE": "U", "NORAD_CAT_ID": 33960, "ELEMENT_SET_NO": 999, "REV_AT_EPOCH": 88875, "BSTAR": 0.00543303, "MEAN_MOTION_DOT": 0.00046916, "MEAN_MOTION_DDOT": 0}, "tle": {"line1": "1 33960U 97051BV  25347.30441169  .00046916  00000+0  54330-2 0  9994", "line2": "2 33960  86.2530 289.2483 0007431  61.8370  98.2531 14.85250874888751"}}, "geometry": {"type": "Point", "coordinates": [-72.5639406587029, -21.912763106647397]}}, {"type": "Feature", "properties": {"norad_id": 33966, "name": "IRIDIUM 33 DEB", "group": "iridium-33-debris", "lat": 34.19515026456474, "lon": -136.94631971393508, "alt_km": 720.6626515961143, "timestamp": "2025-12-13T22:39:30.095407+00:00", "meta": {"OBJECT_NAME": "IRIDIUM 33 DEB", "OBJECT_ID": "1997-051CB", "EPOCH": "2025-12-13T05:44:28.996800", "MEAN_MOTION": 14.49599093, "ECCENTRICITY": 0.00074858, "INCLINATION": 86.3926, "RA_OF_ASC_NODE": 45.8128, "ARG_OF_PERICENTER": 186.3749, "MEAN_ANOMALY": 243.2399, "EPHEMERIS_TYPE": 0, "CLASSIFICATION_TYPE": "U", "NORAD_CAT_ID": 33966, "ELEMENT_SET_NO": 999, "REV_AT_EPOCH": 88449, "BSTAR": 0.00088628726, "MEAN_MOTION_DOT": 3.422e-05, "MEAN_MOTION_DDOT": 0}, "tle": {"line1": "1 33966U 97051CB  25347.23922450  .00003422  00000+0  88629-3 0  9993", "line2": "2 33966  86.3926  45.8128 0007485 186.3749 243.2399 14.49599093884491"}}, "geometry": {"type": "Point", "coordinates": [-136.94631971393508, 34.19515026456474]}}, {"type": "Feature", "properties": {"norad_id": 34071, "name": "IRIDIUM 33 DEB", "group": "iridium-33-debris", "lat": -31.65058521312006, "lon": -160.43742217950157, "alt_km": 735.6592768830205, "timestamp": "2025-12-13T22:39:30.095418+00:00", "meta": {"OBJECT_NAME": "IRIDIUM 33 DEB", "OBJECT_ID": "1997-051CE", "EPOCH": "2025-12-13T03:27:38.801376", "MEAN_MOTION": 14.49468179, "ECCENTRICITY": 0.00099339, "INCLINATION": 86.3461, "RA_OF_ASC_NODE": 17.6526, "ARG_OF_PERICENTER": 106.547, "MEAN_ANOMALY": 253.6826, "EPHEMERIS_TYPE": 0, "CLASSIFICATION_TYPE": "U", "NORAD_CAT_ID": 34071, "ELEMENT_SET_NO": 999, "REV_AT_EPOCH": 88340, "BSTAR": 0.00089989744, "MEAN_MOTION_DOT": 3.466e-05, "MEAN_MOTION_DDOT": 0}, "tle": {"line1": "1 34071U 97051CE  25347.14419909  .00003466  00000+0  89990-3 0  9991", "line2": "2 34071  86.3461  17.6526 0009933 106.5470 253.6826 14.49468179883407"}}, "geometry": {"type": "Point", "coordinates": [-160.43742217950157, -31.65058521312006]}}]}